2024-092D               
1 59776U 24092D   26068.88372108  .00024443  00000+0  76511-3 0  9999
2 59776  97.6418 198.2302 0008340 141.9853 218.1979 15.33078357100518
STARLINK-35747          
1 66207U 25244B   26068.75337721  .00021095  00000+0  72274-3 0  9996
2 66207  53.1587 229.9645 0000852  97.5769 262.5329 15.30181463 21663
